STARLINK-1302
1 45375U 20019R   26090.91671296  .00135082  00000+0  17603-2 0  9991
2 45375  53.0513  44.2085 0003163  64.5247 191.9086 15.57795733  5783
